H1 CPF  1  DLR 2022 05 21 10  6412 technosat            
H2  1704205 6203    42829 2022 05 21 00 00 00 2022 05 28 00 00 00    60 1 1  0 0 0
H9
10 0 59726  14400.000000  0       2813962.108       3118162.458       5544532.829
10 0 59726  14460.000000  0       2655051.665       2771938.959       5799973.425
10 0 59726  14520.000000  0       2481835.448       2415442.354       6030700.914
10 0 59726  14580.000000  0       2294964.393       2050304.017       6235734.517
10 0 59726  14640.000000  0       2095161.544       1678185.607       6414203.307
10 0 59726  14700.000000  0       1883219.150       1300771.342       6565349.760
10 0 59726  14760.000000  0       1659995.405        919760.251       6688532.814
10 0 59726  14820.000000  0       1426410.873        536858.466       6783230.416
10 0 59726  14880.000000  0       1183444.637        153771.585       6849041.651
10 0 59726  14940.000000  0        932130.142       -227802.993       6885688.471
10 0 59726  15000.000000  0        673550.709       -606183.763       6893016.839
10 0 59726  15060.000000  0        408834.812       -979712.600       6870997.274
10 0 59726  15120.000000  0        139151.063      -1346762.082       6819724.965
10 0 59726  15180.000000  0       -134297.005      -1705742.672       6739419.331
10 0 59726  15240.000000  0       -410276.376      -2055109.681       6630423.088
10 0 59726  15300.000000  0       -687530.177      -2393370.012       6493200.769
10 0 59726  15360.000000  0       -964783.396      -2719088.598       6328336.710
10 0 59726  15420.000000  0      -1240748.676      -3030894.518       6136532.621
10 0 59726  15480.000000  0      -1514132.290      -3327486.874       5918604.779
10 0 59726  15540.000000  0      -1783640.262      -3607640.355       5675480.682
10 0 59726  15600.000000  0      -2047984.558      -3870210.450       5408195.258
10 0 59726  15660.000000  0      -2305889.369      -4114138.338       5117886.591
10 0 59726  15720.000000  0      -2556097.409      -4338455.374       4805791.127
10 0 59726  15780.000000  0      -2797376.168      -4542287.075       4473238.387
10 0 59726  15840.000000  0      -3028524.072      -4724856.711       4121645.312
10 0 59726  15900.000000  0      -3248376.567      -4885488.415       3752510.126
10 0 59726  15960.000000  0      -3455811.989      -5023609.752       3367405.831
10 0 59726  16020.000000  0      -3649757.283      -5138753.820       2967973.436
10 0 59726  16080.000000  0      -3829193.567      -5230560.876       2555914.848
10 0 59726  16140.000000  0      -3993161.477      -5298779.426       2132985.441
10 0 59726  16200.000000  0      -4140766.256      -5343266.772       1700986.378
10 0 59726  16260.000000  0      -4271182.545      -5363989.007       1261756.703
10 0 59726  16320.000000  0      -4383658.826      -5361020.484        817165.276
10 0 59726  16380.000000  0      -4477521.551      -5334542.753        369102.592
10 0 59726  16440.000000  0      -4552178.894      -5284842.998        -80527.521
10 0 59726  16500.000000  0      -4607124.111      -5212311.941       -529816.260
10 0 59726  16560.000000  0      -4641938.456      -5117441.236       -976858.231
10 0 59726  16620.000000  0      -4656293.657      -5000820.359      -1419759.772
10 0 59726  16680.000000  0      -4649953.926      -4863133.030      -1856647.166
10 0 59726  16740.000000  0      -4622777.524      -4705153.189      -2285674.721
10 0 59726  16800.000000  0      -4574717.848      -4527740.573      -2705032.636
10 0 59726  16860.000000  0      -4505824.057      -4331835.949      -3112954.644
10 0 59726  16920.000000  0      -4416241.247      -4118456.010      -3507725.415
10 0 59726  16980.000000  0      -4306210.157      -3888687.974      -3887687.654
10 0 59726  17040.000000  0      -4176066.455      -3643683.942      -4251248.903
10 0 59726  17100.000000  0      -4026239.581      -3384654.988      -4596888.027
10 0 59726  17160.000000  0      -3857251.144      -3112865.058      -4923161.319
10 0 59726  17220.000000  0      -3669712.904      -2829624.704      -5228708.212
10 0 59726  17280.000000  0      -3464324.366      -2536284.722      -5512256.592
10 0 59726  17340.000000  0      -3241870.008      -2234229.696      -5772627.718
10 0 59726  17400.000000  0      -3003216.162      -1924871.472      -6008740.745
10 0 59726  17460.000000  0      -2749307.510      -1609642.590      -6219616.846
10 0 59726  17520.000000  0      -2481163.230      -1289989.712      -6404382.865
10 0 59726  17580.000000  0      -2199872.832       -967367.095      -6562274.529
10 0 59726  17640.000000  0      -1906591.709       -643230.107      -6692639.201
10 0 59726  17700.000000  0      -1602536.432       -319028.855      -6794938.178
10 0 59726  17760.000000  0      -1288979.855          3798.063      -6868748.587
10 0 59726  17820.000000  0       -967245.962        323829.678      -6913764.961
10 0 59726  17880.000000  0       -638704.425        639668.693      -6929800.397
10 0 59726  17940.000000  0       -304764.962        949947.409      -6916787.204
10 0 59726  18000.000000  0         33128.449       1253333.385      -6874777.111
10 0 59726  18060.000000  0        373503.500       1548534.890      -6803941.216
10 0 59726  18120.000000  0        714865.785       1834306.319      -6704569.567
10 0 59726  18180.000000  0       1055705.248       2109453.357      -6577070.087
10 0 59726  18240.000000  0       1394502.611       2372837.819      -6421967.077
10 0 59726  18300.000000  0       1729735.914       2623382.331      -6239899.439
10 0 59726  18360.000000  0       2059887.252       2860074.773      -6031618.365
10 0 59726  18420.000000  0       2383449.499       3081972.321      -5797984.533
10 0 59726  18480.000000  0       2698933.037       3288205.219      -5539964.978
10 0 59726  18540.000000  0       3004872.523       3477980.305      -5258629.564
10 0 59726  18600.000000  0       3299833.704       3650584.250      -4955147.003
10 0 59726  18660.000000  0       3582420.191       3805386.397      -4630780.383
10 0 59726  18720.000000  0       3851280.136       3941841.258      -4286882.312
10 0 59726  18780.000000  0       4105112.816       4059490.639      -3924889.633
10 0 59726  18840.000000  0       4342675.112       4157965.365      -3546317.713
10 0 59726  18900.000000  0       4562787.761       4236986.586      -3152754.319
10 0 59726  18960.000000  0       4764341.356       4296366.652      -2745853.122
10 0 59726  19020.000000  0       4946302.091       4336009.570      -2327326.941
10 0 59726  19080.000000  0       5107717.306       4355911.060      -1898940.617
10 0 59726  19140.000000  0       5247720.668       4356158.116      -1462503.524
10 0 59726  19200.000000  0       5365536.916       4336928.134      -1019861.877
10 0 59726  19260.000000  0       5460486.242       4298487.603       -572890.824
10 0 59726  19320.000000  0       5531988.228       4241190.373       -123486.369
10 0 59726  19380.000000  0       5579565.379       4165475.500        326442.836
10 0 59726  19440.000000  0       5602846.189       4071864.655        774983.860
10 0 59726  19500.000000  0       5601567.650       3960959.057       1220227.910
10 0 59726  19560.000000  0       5575577.273       3833436.029       1660278.725
10 0 59726  19620.000000  0       5524834.536       3690045.179       2093260.987
10 0 59726  19680.000000  0       5449411.731       3531604.255       2517328.629
10 0 59726  19740.000000  0       5349494.271       3358994.666       2930673.004
10 0 59726  19800.000000  0       5225380.439       3173156.691       3331530.901
10 0 59726  19860.000000  0       5077480.556       2975084.400       3718192.316
10 0 59726  19920.000000  0       4906315.585       2765820.325       4089007.993
10 0 59726  19980.000000  0       4712515.095       2546449.844       4442396.511
10 0 59726  20040.000000  0       4496815.004       2318095.637       4776850.995
10 0 59726  20100.000000  0       4260054.686       2081911.951       5090945.925
10 0 59726  20160.000000  0       4003173.322       1839078.657       5383343.271
10 0 59726  20220.000000  0       3727205.944       1590795.261       5652798.161
10 0 59726  20280.000000  0       3433279.004       1338274.856       5898164.127
10 0 59726  20340.000000  0       3122605.534       1082738.084       6118397.855
10 0 59726  20400.000000  0       2796479.935        825407.181       6312563.438
10 0 59726  20460.000000  0       2456272.434        567500.146       6479836.222
10 0 59726  20520.000000  0       2103423.205        310224.963       6619506.240
10 0 59726  20580.000000  0       1739436.137         54773.904       6730981.177
10 0 59726  20640.000000  0       1365872.280       -197682.028       6813788.846
10 0 59726  20700.000000  0        984342.957       -445998.561       6867579.119
10 0 59726  20760.000000  0        596502.687       -689063.401       6892125.222
10 0 59726  20820.000000  0        204041.954       -925801.212       6887324.647
10 0 59726  20880.000000  0       -191320.284      -1155178.423       6853199.542
10 0 59726  20940.000000  0       -587844.179      -1376207.806       6789896.556
10 0 59726  21000.000000  0       -983776.747      -1587952.773       6697686.181
10 0 59726  21060.000000  0      -1377359.650      -1789531.375       6576961.532
10 0 59726  21120.000000  0      -1766836.996      -1980119.960       6428236.711
10 0 59726  21180.000000  0      -2150463.184      -2158956.541       6252144.736
10 0 59726  21240.000000  0      -2526510.773      -2325343.891       6049435.059
10 0 59726  21300.000000  0      -2893278.450      -2478652.395       5820970.605
10 0 59726  21360.000000  0      -3249099.020      -2618322.537       5567724.163
10 0 59726  21420.000000  0      -3592347.158      -2743866.957       5290774.198
10 0 59726  21480.000000  0      -3921446.971      -2854872.181       4991300.311
10 0 59726  21540.000000  0      -4234879.436      -2950999.972       4670578.220
99
